EUTELSAT 8 WEST B       
1 40875U 15039B   25306.39378123 -.00000053  00000+0  00000+0 0  9991
2 40875   0.0727  18.4657 0003972 208.0681 309.1532  1.00272078 37380
EUTELSAT 9B             
1 41310U 16005A   25306.32583419  .00000074  00000+0  00000+0 0  9991
2 41310   0.0610  71.2083 0004113 175.7052 281.2579  1.00270966 35840
EUTELSAT 65 WEST A      
1 41382U 16014A   25306.49469093 -.00000264  00000+0  00000+0 0  9991
2 41382   0.0771  48.9903 0002565 184.7982 281.1540  1.00269929 35260
EUTELSAT 117 WEST B     
1 41589U 16038B   25306.51652443  .00000000  00000+0  00000+0 0  9999
2 41589   0.0127 105.2097 0000277 334.4677  31.3285  1.00271554 34399
EUTELSAT 172B           
1 42741U 17029B   25306.39141980  .00000007  00000+0  00000+0 0  9993
2 42741   0.0203 177.6528 0000042 282.5481 254.6471  1.00270874 31458
EUTELSAT 7C             
1 44334U 19034B   25306.25407382  .00000060  00000+0  00000+0 0  9996
2 44334   0.0675 185.2879 0003269  17.4636 297.5174  1.00270731  4566
EUTELSAT 5 WEST B       
1 44624U 19067A   25306.32306083 -.00000030  00000+0  00000+0 0  9996
2 44624   0.0684 350.0305 0003309 233.4218 289.7251  1.00270577 22168
EUTELSAT KONNECT        
1 45027U 20005B   25306.32548751  .00000062  00000+0  00000+0 0  9992
2 45027   0.0637  90.6867 0001303 150.6098 284.9577  1.00271078 22055
